CCSDS_OMM_VERS = 2.0
CREATION_DATE  = 
ORIGINATOR     = 

OBJECT_NAME    = UNKNOWN
OBJECT_ID      = 
CENTER_NAME    = EARTH
REF_FRAME      = TEME
TIME_SYSTEM    = UTC
MEAN_ELEMENT_THEORY = SGP/SGP4

EPOCH          = 2026-02-12T07:04:07.419648
MEAN_MOTION    = 15.12076880
ECCENTRICITY   = .00014263
INCLINATION    = 98.6750
RA_OF_ASC_NODE = 70.4050
ARG_OF_PERICENTER = 24.3423
MEAN_ANOMALY   = 335.7871

EPHEMERIS_TYPE = 0
CLASSIFICATION_TYPE = U
NORAD_CAT_ID   = 270304
ELEMENT_SET_NO = 999
REV_AT_EPOCH   = 25750
BSTAR          = .72101011E-2
MEAN_MOTION_DOT = .126106E-2
MEAN_MOTION_DDOT = 0

CCSDS_OMM_VERS = 2.0
CREATION_DATE  = 
ORIGINATOR     = 

OBJECT_NAME    = UNKNOWN
OBJECT_ID      = 
CENTER_NAME    = EARTH
REF_FRAME      = TEME
TIME_SYSTEM    = UTC
MEAN_ELEMENT_THEORY = SGP/SGP4

EPOCH          = 2026-02-07T22:10:04.172160
MEAN_MOTION    = 14.37517259
ECCENTRICITY   = .00081952
INCLINATION    = 98.8218
RA_OF_ASC_NODE = 23.3043
ARG_OF_PERICENTER = 124.0847
MEAN_ANOMALY   = 236.1118

EPHEMERIS_TYPE = 0
CLASSIFICATION_TYPE = U
NORAD_CAT_ID   = 270305
ELEMENT_SET_NO = 999
REV_AT_EPOCH   = 25250
BSTAR          = .65119061E-3
MEAN_MOTION_DOT = .1905E-4
MEAN_MOTION_DDOT = 0

CCSDS_OMM_VERS = 2.0
CREATION_DATE  = 
ORIGINATOR     = 

OBJECT_NAME    = UNKNOWN
OBJECT_ID      = 
CENTER_NAME    = EARTH
REF_FRAME      = TEME
TIME_SYSTEM    = UTC
MEAN_ELEMENT_THEORY = SGP/SGP4

EPOCH          = 2026-02-05T04:13:51.286656
MEAN_MOTION    = 12.92697537
ECCENTRICITY   = .0027196
INCLINATION    = 90.2466
RA_OF_ASC_NODE = 4.0555
ARG_OF_PERICENTER = 277.4000
MEAN_ANOMALY   = 82.4028

EPHEMERIS_TYPE = 0
CLASSIFICATION_TYPE = U
NORAD_CAT_ID   = 270306
ELEMENT_SET_NO = 999
REV_AT_EPOCH   = 24756
BSTAR          = .20755046E-3
MEAN_MOTION_DOT = .63E-6
MEAN_MOTION_DDOT = 0

CCSDS_OMM_VERS = 2.0
CREATION_DATE  = 
ORIGINATOR     = 

OBJECT_NAME    = UNKNOWN
OBJECT_ID      = 
CENTER_NAME    = EARTH
REF_FRAME      = TEME
TIME_SYSTEM    = UTC
MEAN_ELEMENT_THEORY = SGP/SGP4

EPOCH          = 2026-02-05T15:38:15.878688
MEAN_MOTION    = 13.66536753
ECCENTRICITY   = .00759237
INCLINATION    = 82.6997
RA_OF_ASC_NODE = 178.2709
ARG_OF_PERICENTER = 141.5291
MEAN_ANOMALY   = 219.1308

EPHEMERIS_TYPE = 0
CLASSIFICATION_TYPE = U
NORAD_CAT_ID   = 270307
ELEMENT_SET_NO = 999
REV_AT_EPOCH   = 28440
BSTAR          = .18570288E-1
MEAN_MOTION_DOT = .15745E-3
MEAN_MOTION_DDOT = 0

CCSDS_OMM_VERS = 2.0
CREATION_DATE  = 
ORIGINATOR     = 

OBJECT_NAME    = UNKNOWN
OBJECT_ID      = 
CENTER_NAME    = EARTH
REF_FRAME      = TEME
TIME_SYSTEM    = UTC
MEAN_ELEMENT_THEORY = SGP/SGP4

EPOCH          = 2026-02-02T00:56:54.268800
MEAN_MOTION    = 12.99354990
ECCENTRICITY   = .02053566
INCLINATION    = 82.5689
RA_OF_ASC_NODE = 304.2554
ARG_OF_PERICENTER = 132.0667
MEAN_ANOMALY   = 229.8120

EPHEMERIS_TYPE = 0
CLASSIFICATION_TYPE = U
NORAD_CAT_ID   = 270308
ELEMENT_SET_NO = 999
REV_AT_EPOCH   = 27962
BSTAR          = .11335804E-1
MEAN_MOTION_DOT = .3741E-4
MEAN_MOTION_DDOT = 0

CCSDS_OMM_VERS = 2.0
CREATION_DATE  = 
ORIGINATOR     = 

OBJECT_NAME    = UNKNOWN
OBJECT_ID      = 
CENTER_NAME    = EARTH
REF_FRAME      = TEME
TIME_SYSTEM    = UTC
MEAN_ELEMENT_THEORY = SGP/SGP4

EPOCH          = 2026-02-12T22:37:02.757792
MEAN_MOTION    = 14.93713346
ECCENTRICITY   = .00376344
INCLINATION    = 98.3962
RA_OF_ASC_NODE = 30.3617
ARG_OF_PERICENTER = 105.8882
MEAN_ANOMALY   = 254.6489

EPHEMERIS_TYPE = 0
CLASSIFICATION_TYPE = U
NORAD_CAT_ID   = 270309
ELEMENT_SET_NO = 999
REV_AT_EPOCH   = 27712
BSTAR          = .52032E-3
MEAN_MOTION_DOT = .5519E-4
MEAN_MOTION_DDOT = 0

CCSDS_OMM_VERS = 2.0
CREATION_DATE  = 
ORIGINATOR     = 

OBJECT_NAME    = UNKNOWN
OBJECT_ID      = 
CENTER_NAME    = EARTH
REF_FRAME      = TEME
TIME_SYSTEM    = UTC
MEAN_ELEMENT_THEORY = SGP/SGP4

EPOCH          = 2026-01-17T10:36:26.468064
MEAN_MOTION    = 13.48393398
ECCENTRICITY   = .01910872
INCLINATION    = 82.9399
RA_OF_ASC_NODE = 274.2433
ARG_OF_PERICENTER = 147.6450
MEAN_ANOMALY   = 213.6582

EPHEMERIS_TYPE = 0
CLASSIFICATION_TYPE = U
NORAD_CAT_ID   = 270310
ELEMENT_SET_NO = 999
REV_AT_EPOCH   = 23629
BSTAR          = .11849104E-2
MEAN_MOTION_DOT = .837E-5
MEAN_MOTION_DDOT = 0

CCSDS_OMM_VERS = 2.0
CREATION_DATE  = 
ORIGINATOR     = 

OBJECT_NAME    = UNKNOWN
OBJECT_ID      = 
CENTER_NAME    = EARTH
REF_FRAME      = TEME
TIME_SYSTEM    = UTC
MEAN_ELEMENT_THEORY = SGP/SGP4

EPOCH          = 2026-02-09T22:32:33.845568
MEAN_MOTION    = 14.52295653
ECCENTRICITY   = .0022153
INCLINATION    = 98.8052
RA_OF_ASC_NODE = 33.9289
ARG_OF_PERICENTER = 357.6512
MEAN_ANOMALY   = 2.4575

EPHEMERIS_TYPE = 0
CLASSIFICATION_TYPE = U
NORAD_CAT_ID   = 270311
ELEMENT_SET_NO = 999
REV_AT_EPOCH   = 25455
BSTAR          = .24628389E-2
MEAN_MOTION_DOT = .10007E-3
MEAN_MOTION_DDOT = 0

CCSDS_OMM_VERS = 2.0
CREATION_DATE  = 
ORIGINATOR     = 

OBJECT_NAME    = UNKNOWN
OBJECT_ID      = 
CENTER_NAME    = EARTH
REF_FRAME      = TEME
TIME_SYSTEM    = UTC
MEAN_ELEMENT_THEORY = SGP/SGP4

EPOCH          = 2026-02-01T18:19:01.081344
MEAN_MOTION    = 14.18302001
ECCENTRICITY   = .00293501
INCLINATION    = 98.4503
RA_OF_ASC_NODE = 36.9466
ARG_OF_PERICENTER = 348.6006
MEAN_ANOMALY   = 11.4503

EPHEMERIS_TYPE = 0
CLASSIFICATION_TYPE = U
NORAD_CAT_ID   = 270312
ELEMENT_SET_NO = 999
REV_AT_EPOCH   = 31987
BSTAR          = .31829367E-3
MEAN_MOTION_DOT = .617E-5
MEAN_MOTION_DDOT = 0

CCSDS_OMM_VERS = 2.0
CREATION_DATE  = 
ORIGINATOR     = 

OBJECT_NAME    = UNKNOWN
OBJECT_ID      = 
CENTER_NAME    = EARTH
REF_FRAME      = TEME
TIME_SYSTEM    = UTC
MEAN_ELEMENT_THEORY = SGP/SGP4

EPOCH          = 2026-02-03T16:03:28.152576
MEAN_MOTION    = 12.95208727
ECCENTRICITY   = .00253657
INCLINATION    = 90.2487
RA_OF_ASC_NODE = 8.1726
ARG_OF_PERICENTER = 193.4386
MEAN_ANOMALY   = 166.6061

EPHEMERIS_TYPE = 0
CLASSIFICATION_TYPE = U
NORAD_CAT_ID   = 270313
ELEMENT_SET_NO = 999
REV_AT_EPOCH   = 28778
BSTAR          = .1416025E-2
MEAN_MOTION_DOT = .406E-5
MEAN_MOTION_DDOT = 0

CCSDS_OMM_VERS = 2.0
CREATION_DATE  = 
ORIGINATOR     = 

OBJECT_NAME    = UNKNOWN
OBJECT_ID      = 
CENTER_NAME    = EARTH
REF_FRAME      = TEME
TIME_SYSTEM    = UTC
MEAN_ELEMENT_THEORY = SGP/SGP4

EPOCH          = 2026-02-03T04:49:46.926912
MEAN_MOTION    = 12.94756930
ECCENTRICITY   = .00257172
INCLINATION    = 90.2472
RA_OF_ASC_NODE = 4.0103
ARG_OF_PERICENTER = 261.4325
MEAN_ANOMALY   = 98.3880

EPHEMERIS_TYPE = 0
CLASSIFICATION_TYPE = U
NORAD_CAT_ID   = 270314
ELEMENT_SET_NO = 999
REV_AT_EPOCH   = 27528
BSTAR          = .1753002E-2
MEAN_MOTION_DOT = .497E-5
MEAN_MOTION_DDOT = 0

CCSDS_OMM_VERS = 2.0
CREATION_DATE  = 
ORIGINATOR     = 

OBJECT_NAME    = UNKNOWN
OBJECT_ID      = 
CENTER_NAME    = EARTH
REF_FRAME      = TEME
TIME_SYSTEM    = UTC
MEAN_ELEMENT_THEORY = SGP/SGP4

EPOCH          = 2026-02-10T12:44:56.796288
MEAN_MOTION    = 14.21040516
ECCENTRICITY   = .00062787
INCLINATION    = 81.2098
RA_OF_ASC_NODE = 337.4280
ARG_OF_PERICENTER = 90.6480
MEAN_ANOMALY   = 269.5416

EPHEMERIS_TYPE = 0
CLASSIFICATION_TYPE = U
NORAD_CAT_ID   = 270316
ELEMENT_SET_NO = 999
REV_AT_EPOCH   = 27259
BSTAR          = .14712526E-2
MEAN_MOTION_DOT = .3203E-4
MEAN_MOTION_DDOT = 0

CCSDS_OMM_VERS = 2.0
CREATION_DATE  = 
ORIGINATOR     = 

OBJECT_NAME    = UNKNOWN
OBJECT_ID      = 
CENTER_NAME    = EARTH
REF_FRAME      = TEME
TIME_SYSTEM    = UTC
MEAN_ELEMENT_THEORY = SGP/SGP4

EPOCH          = 2026-02-06T08:32:16.123488
MEAN_MOTION    = 12.93345053
ECCENTRICITY   = .00219492
INCLINATION    = 90.2462
RA_OF_ASC_NODE = 4.4266
ARG_OF_PERICENTER = 247.6422
MEAN_ANOMALY   = 112.2370

EPHEMERIS_TYPE = 0
CLASSIFICATION_TYPE = U
NORAD_CAT_ID   = 270317
ELEMENT_SET_NO = 999
REV_AT_EPOCH   = 7788
BSTAR          = .12670191E-2
MEAN_MOTION_DOT = .354E-5
MEAN_MOTION_DDOT = 0

CCSDS_OMM_VERS = 2.0
CREATION_DATE  = 
ORIGINATOR     = 

OBJECT_NAME    = UNKNOWN
OBJECT_ID      = 
CENTER_NAME    = EARTH
REF_FRAME      = TEME
TIME_SYSTEM    = UTC
MEAN_ELEMENT_THEORY = SGP/SGP4

EPOCH          = 2026-01-30T16:55:58.687968
MEAN_MOTION    = 12.53138267
ECCENTRICITY   = .05322577
INCLINATION    = 102.9925
RA_OF_ASC_NODE = 183.7767
ARG_OF_PERICENTER = 229.8458
MEAN_ANOMALY   = 125.4830

EPHEMERIS_TYPE = 0
CLASSIFICATION_TYPE = U
NORAD_CAT_ID   = 270319
ELEMENT_SET_NO = 999
REV_AT_EPOCH   = 6846
BSTAR          = .25255133E-1
MEAN_MOTION_DOT = .6708E-4
MEAN_MOTION_DDOT = 0

CCSDS_OMM_VERS = 2.0
CREATION_DATE  = 
ORIGINATOR     = 

OBJECT_NAME    = UNKNOWN
OBJECT_ID      = 
CENTER_NAME    = EARTH
REF_FRAME      = TEME
TIME_SYSTEM    = UTC
MEAN_ELEMENT_THEORY = SGP/SGP4

EPOCH          = 2026-02-03T15:19:48.430272
MEAN_MOTION    = 12.99500716
ECCENTRICITY   = .00261978
INCLINATION    = 90.2420
RA_OF_ASC_NODE = 2.3204
ARG_OF_PERICENTER = 322.7294
MEAN_ANOMALY   = 37.2009

EPHEMERIS_TYPE = 0
CLASSIFICATION_TYPE = U
NORAD_CAT_ID   = 270320
ELEMENT_SET_NO = 999
REV_AT_EPOCH   = 22728
BSTAR          = .38176525E-4
MEAN_MOTION_DOT = .19E-6
MEAN_MOTION_DDOT = 0

CCSDS_OMM_VERS = 2.0
CREATION_DATE  = 
ORIGINATOR     = 

OBJECT_NAME    = UNKNOWN
OBJECT_ID      = 
CENTER_NAME    = EARTH
REF_FRAME      = TEME
TIME_SYSTEM    = UTC
MEAN_ELEMENT_THEORY = SGP/SGP4

EPOCH          = 2026-02-12T07:34:43.150944
MEAN_MOTION    = 12.92673004
ECCENTRICITY   = .00277743
INCLINATION    = 90.2481
RA_OF_ASC_NODE = 3.9793
ARG_OF_PERICENTER = 253.0598
MEAN_ANOMALY   = 106.7475

EPHEMERIS_TYPE = 0
CLASSIFICATION_TYPE = U
NORAD_CAT_ID   = 270321
ELEMENT_SET_NO = 999
REV_AT_EPOCH   = 24991
BSTAR          = .63809503E-3
MEAN_MOTION_DOT = .18E-5
MEAN_MOTION_DDOT = 0

